BEIDOU-2 IGSO-1 (C06)   
1 36828U 10036A   26177.90040617 -.00000057  00000+0  00000+0 0  9998
2 36828  54.3050 162.8716 0059014 225.3100 318.5305  1.00269877 58197
BEIDOU-2 G4 (C04)       
1 37210U 10057A   26179.90701100 -.00000104  00000+0  00000+0 0  9993
2 37210   3.6755  68.8832 0004794 190.7293 143.8883  1.00271544 57406
BEIDOU-2 IGSO-2 (C07)   
1 37256U 10068A   26179.68323434 -.00000195  00000+0  00000+0 0  9990
2 37256  47.5257 271.6882 0056345 213.6566 145.5786  1.00280165 56900
BEIDOU-2 IGSO-3 (C08)   
1 37384U 11013A   26176.54644699 -.00000187  00000+0  00000+0 0  9995
2 37384  62.4191  40.0714 0035057 184.1159 353.6243  1.00266124 55744
BEIDOU-2 IGSO-4 (C09)   
1 37763U 11038A   26179.94400245  .00000017  00000+0  00000+0 0  9998
2 37763  54.6034 165.5678 0159694 231.4501 313.7115  1.00283415 54765
BEIDOU-2 IGSO-5 (C10)   
1 37948U 11073A   26175.65702808 -.00000196  00000+0  00000+0 0  9995
2 37948  47.6633 271.4526 0114223 222.0346 107.5350  1.00272136 53204
BEIDOU-2 G5 (C05)       
1 38091U 12008A   26179.98575640  .00000064  00000+0  00000+0 0  9999
2 38091   3.6028  69.6321 0008519 275.8995 345.1785  1.00276642 52487
BEIDOU-2 M3 (C11)       
1 38250U 12018A   26179.46480675 -.00000088  00000+0  00000+0 0  9990
2 38250  55.7472 304.4944 0020322 273.2985  86.4646  1.86229998 96152
BEIDOU-2 M4 (C12)       
1 38251U 12018B   26178.86016397 -.00000092  00000+0  00000+0 0  9995
2 38251  55.6479 303.7280 0011522 274.3517  85.5111  1.86229628 96145
BEIDOU-2 M6 (C14)       
1 38775U 12050B   26176.95898030 -.00000089  00000+0  00000+0 0  9998
2 38775  56.5518  62.6042 0013516 358.2268   1.8099  1.86231117 93472
BEIDOU-2 G6 (C02)       
1 38953U 12059A   26179.98775090 -.00000168  00000+0  00000+0 0  9999
2 38953   4.4509  73.4021 0009615 329.2064 314.0896  1.00271113 50020
BEIDOU-3S IGSO-1S (C31) 
1 40549U 15019A   26178.80438100 -.00000163  00000+0  00000+0 0  9995
2 40549  49.1741 295.3331 0039098 191.8080 168.8013  1.00249344 41180
BEIDOU-3S M2S (C58)     
1 40748U 15037A   26179.59929838 -.00000084  00000+0  00000+0 0  9998
2 40748  54.8599 301.6527 0008567 258.3318 101.5721  1.86232293 74335
BEIDOU-3S M1S (C57)     
1 40749U 15037B   26178.19464110 -.00000096  00000+0  00000+0 0  9994
2 40749  54.8580 301.6893 0003219  62.4123 297.6156  1.86255050 74312
BEIDOU-3S IGSO-2S (C56) 
1 40938U 15053A   26179.96992363 -.00000099  00000+0  00000+0 0  9997
2 40938  49.2020 258.6412 0065667 193.1508 268.9330  1.00257545 39471
BEIDOU-2 IGSO-6 (C13)   
1 41434U 16021A   26177.11016981 -.00000145  00000+0  00000+0 0  9995
2 41434  60.2385  37.9495 0057558 231.0163 137.2672  1.00258926 37578
BEIDOU-2 G7 (C03)       
1 41586U 16037A   26179.96877894 -.00000343  00000+0  00000+0 0  9993
2 41586   1.7488  69.4208 0006829   2.4396 304.5140  1.00271438  7002
BEIDOU-3 M1 (C19)       
1 43001U 17069A   26179.40913100 -.00000066  00000+0  00000+0 0  9995
2 43001  56.7017  62.7147 0009860 326.3987  33.5922  1.86231517 58814
BEIDOU-3 M2 (C20)       
1 43002U 17069B   26179.34790919 -.00000066  00000+0  00000+0 0  9990
2 43002  56.7014  62.7523 0008884 352.9823   7.0583  1.86230801 58802
BEIDOU-3 M7 (C27)       
1 43107U 18003A   26179.08973558 -.00000089  00000+0  00000+0 0  9993
2 43107  54.3171 301.9342 0004910  95.7490 264.3050  1.86228313 57554
BEIDOU-3 M8 (C28)       
1 43108U 18003B   26177.42347806 -.00000102  00000+0  00000+0 0  9997
2 43108  54.3115 301.9738 0002414 260.4208  99.5455  1.86231146 57530
BEIDOU-3 M4 (C22)       
1 43207U 18018A   26179.47742161 -.00000065  00000+0  00000+0 0  9991
2 43207  56.6607  62.7762 0007436  23.6097 336.4781  1.86231518 56957
BEIDOU-3 M3 (C21)       
1 43208U 18018B   26179.54390601 -.00000064  00000+0  00000+0 0  9997
2 43208  56.6606  62.7778 0008145 342.7632  17.2631  1.86231364 56959
BEIDOU-3 M9 (C29)       
1 43245U 18029A   26178.68786010 -.00000090  00000+0  00000+0 0  9996
2 43245  54.1834 299.5811 0000937 166.7829 193.2191  1.86228615 56093
BEIDOU-3 M10 (C30)      
1 43246U 18029B   26179.15912422 -.00000086  00000+0  00000+0 0  9993
2 43246  54.1804 299.5911 0003621  39.5768 320.4508  1.86229480 56080
BEIDOU-2 IGSO-7 (C16)   
1 43539U 18057A   26177.50590209 -.00000028  00000+0  00000+0 0  9997
2 43539  55.1970 162.9757 0104768 237.9790 164.9478  1.00249004 29227
BEIDOU-3 M5 (C23)       
1 43581U 18062A   26178.84619419  .00000083  00000+0  00000+0 0  9993
2 43581  54.0860 181.9416 0005768 291.0967  68.8660  1.86228745 53832
BEIDOU-3 M6 (C24)       
1 43582U 18062B   26178.70971725  .00000085  00000+0  00000+0 0  9992
2 43582  54.0860 181.9355 0005105   8.8787 351.1552  1.86227843 53830
BEIDOU-3 M12 (C26)      
1 43602U 18067A   26177.03726485  .00000098  00000+0  00000+0 0  9990
2 43602  54.1810 180.7397 0007828  29.5974 330.4748  1.86227758 53285
BEIDOU-3 M11 (C25)      
1 43603U 18067B   26179.32018159  .00000078  00000+0  00000+0 0  9995
2 43603  54.1783 180.6260 0004587  12.7295 347.3012  1.86227250 53358
BEIDOU-3 M13 (C32)      
1 43622U 18072A   26179.27497689 -.00000067  00000+0  00000+0 0  9994
2 43622  56.6346  62.2932 0006901 331.0537  28.9612  1.86231424 52861
BEIDOU-3 M14 (C33)      
1 43623U 18072B   26179.14040925 -.00000069  00000+0  00000+0 0  9990
2 43623  56.6363  62.2922 0005961   4.6326 355.4253  1.86231431 52850
BEIDOU-3 M16 (C35)      
1 43647U 18078A   26179.83251074 -.00000080  00000+0  00000+0 0  9990
2 43647  54.0786 299.5778 0006917  40.5886 319.4668  1.86232470 52374
BEIDOU-3 M15 (C34)      
1 43648U 18078B   26179.96178929 -.00000079  00000+0  00000+0 0  9990
2 43648  54.0740 299.5736 0003927  58.0556 301.9871  1.86232603 52397
BEIDOU-3 G1 (C59)       
1 43683U 18085A   26179.90701100 -.00000101  00000+0  00000+0 0  9990
2 43683   2.8978  97.0619 0008571 352.3271 314.0542  1.00271119 28175
BEIDOU-3 M17 (C36)      
1 43706U 18093A   26177.50233032  .00000095  00000+0  00000+0 0  9994
2 43706  54.1697 181.9800 0010136 292.4713 110.1482  1.86228594 51716
BEIDOU-3 M18 (C37)      
1 43707U 18093B   26177.30216318  .00000097  00000+0  00000+0 0  9993
2 43707  54.1702 181.9788 0008135 321.1510  38.8204  1.86226640 51707
BEIDOU-3 IGSO-1 (C38)   
1 44204U 19023A   26175.54148515 -.00000226  00000+0  00000+0 0  9992
2 44204  58.7053  37.5725 0025747 224.9564 323.4804  1.00289953  7288
BEIDOU-2 G8 (C01)       
1 44231U 19027A   26178.97744683 -.00000238  00000+0  00000+0 0  9997
2 44231   1.6855  74.5233 0009835 285.1014  52.8069  1.00268598 26187
BEIDOU-3 IGSO-2 (C39)   
1 44337U 19035A   26177.85739221 -.00000073  00000+0  00000+0 0  9998
2 44337  55.2494 158.7781 0039592 216.4480 327.7946  1.00263830 25763
BEIDOU-3 M24 (C46)      
1 44542U 19061A   26179.51848630  .00000079  00000+0  00000+0 0  9990
2 44542  54.3968 182.3453 0008540 358.6533   1.3666  1.86229281 46003
BEIDOU-3 M23 (C45)      
1 44543U 19061B   26179.98127272  .00000076  00000+0  00000+0 0  9991
2 44543  54.3959 182.2982 0005837 339.0191 242.7984  1.86227665 46018
BEIDOU-3 M22 (C44)      
1 44793U 19078A   26179.35847846 -.00000084  00000+0  00000+0 0  9993
2 44793  53.9250 299.4342 0006295  52.2108 307.8484  1.86227483 44852
BEIDOU-3 M21 (C43)      
1 44794U 19078B   26178.96140830 -.00000087  00000+0  00000+0 0  9992
2 44794  53.8982 299.4091 0003978  49.1157 310.9195  1.86227959 44851
BEIDOU-3 M19 (C41)      
1 44864U 19090A   26179.35129987 -.00000067  00000+0  00000+0 0  9996
2 44864  56.5682  62.4212 0017425 297.4344 161.4191  1.86231816 44444
BEIDOU-3 M20 (C42)      
1 44865U 19090B   26179.87849642 -.00000061  00000+0  00000+0 0  9995
2 44865  56.5709  62.4384 0015177 311.8546 230.0440  1.86231798 44430
BEIDOU-3 G2 (C60)       
1 45344U 20017A   26179.96271225 -.00000132  00000+0  00000+0 0  9994
2 45344   2.8876  47.5261 0002589  41.4136 254.7826  1.00271992 23371
BEIDOU-3 G3 (C61)       
1 45807U 20040A   26179.96877894 -.00000345  00000+0  00000+0 0  9994
2 45807   2.4758  67.4764 0002577 331.0925 337.8035  1.00273629 22182
BEIDOU-3 G4 (C62)       
1 56564U 23066A   26179.97458563 -.00000269  00000+0  00000+0 0  9991
2 56564   0.4740 334.4817 0004911 175.4323 258.0479  1.00270376 11512
BEIDOU-3 M28 (C50)      
1 58654U 23207A   26177.96453260 -.00000082  00000+0  00000+0 0  9999
2 58654  55.7613  61.9731 0002966 353.1453   6.8963  1.86229899 17027
BEIDOU-3 M26 (C48)      
1 58655U 23207B   26179.37291464 -.00000068  00000+0  00000+0 0  9997
2 58655  55.7647  61.9122 0002589 322.9060  37.1290  1.86229888 17037
BEIDOU-3 M25 (C47)      
1 61186U 24168B   26177.68837491 -.00000100  00000+0  00000+0 0  9992
2 61186  54.4642 301.9122 0003152 298.5828 129.4520  1.86230368 11967
BEIDOU-3 M27 (C49)      
1 61187U 24168C   26179.53629838 -.00000086  00000+0  00000+0 0  9996
2 61187  54.4577 301.8311 0001315  47.2541 314.7490  1.86230465  9470
